OBJECT_NAME,OBJECT_ID,EPOCH,MEAN_MOTION,ECCENTRICITY,INCLINATION,RA_OF_ASC_NODE,ARG_OF_PERICENTER,MEAN_ANOMALY,EPHEMERIS_TYPE,CLASSIFICATION_TYPE,NORAD_CAT_ID,ELEMENT_SET_NO,REV_AT_EPOCH,BSTAR,MEAN_MOTION_DOT,MEAN_MOTION_DDOT
ONEWEB-0196,2021-031J,2026-06-14T02:18:33.787296,13.14502662,.0001963,87.8960,290.3230,105.3019,254.8328,0,U,48218,999,24782,.47578E-3,.189E-5,0
ONEWEB-0183,2021-031K,2026-06-14T01:42:01.292256,13.14503140,.0002091,87.8959,290.3262,97.3640,262.7728,0,U,48219,999,24791,-.58955E-3,-.206E-5,0
ONEWEB-0185,2021-031L,2026-06-14T02:19:41.581920,13.14502023,.0002327,87.8968,290.3141,102.4081,257.7309,0,U,48220,999,24784,.29612E-3,.123E-5,0
ONEWEB-0187,2021-031M,2026-06-14T01:50:57.643584,13.14502836,.0002122,87.8956,290.3340,105.1932,254.9432,0,U,48221,999,24785,-.46243E-3,-.159E-5,0
ONEWEB-0192,2021-031N,2026-06-13T21:28:31.947744,13.14501502,.0001846,87.8959,290.3603,102.7905,257.3431,0,U,48222,999,24774,-.19022E-4,.6E-7,0
ONEWEB-0219,2021-031P,2026-06-14T02:27:40.033152,13.14504475,.0002169,87.8959,290.3111,104.3620,255.7751,0,U,48223,999,24797,.44139E-3,.176E-5,0
ONEWEB-0202,2021-031Q,2026-06-14T02:00:17.786880,13.14502639,.0001766,87.8965,290.3275,121.5909,238.5394,0,U,48224,999,24795,-.32643E-3,-.108E-5,0
ONEWEB-0204,2021-031R,2026-06-13T21:20:33.859392,13.14502530,.0002165,87.8964,290.3604,95.3668,264.7709,0,U,48225,999,24782,.19049E-3,.83E-6,0
ONEWEB-0205,2021-031S,2026-06-14T02:13:58.028736,13.14505954,.0002102,87.8970,290.3131,106.9440,253.1921,0,U,48226,999,24786,.52067E-4,.32E-6,0
ONEWEB-0206,2021-031T,2026-06-14T01:35:09.966048,13.14503717,.0001817,87.8965,290.3200,95.8991,264.2346,0,U,48227,999,24781,-.57263E-3,-.2E-5,0
ONEWEB-0182,2021-031U,2026-06-14T01:28:19.115040,13.14502498,.0002092,87.8961,290.3286,95.8001,264.3367,0,U,48228,999,24802,-.55159E-3,-.192E-5,0
ONEWEB-0186,2021-031V,2026-06-14T01:44:18.009024,13.14502671,.0002015,87.8971,290.3168,102.8625,257.2729,0,U,48229,999,24797,-.60758E-3,-.212E-5,0
ONEWEB-0181,2021-031W,2026-06-14T01:12:20.297952,13.14503251,.0001959,87.8952,290.3512,106.5091,253.6254,0,U,48230,999,24782,-.19651E-3,-.6E-6,0
ONEWEB-0188,2021-031X,2026-06-14T02:07:08.238720,13.14504040,.0001966,87.8952,290.3428,101.2222,258.9129,0,U,48231,999,24773,-.83173E-4,-.18E-6,0
ONEWEB-0220,2021-031Y,2026-06-14T03:04:12.660384,13.14501700,.0002197,87.8971,290.3074,104.7115,255.4258,0,U,48232,999,24800,-.79413E-4,-.17E-6,0
ONEWEB-0165,2021-031Z,2026-06-14T01:55:42.875904,13.14500716,.0001928,87.8962,290.3300,112.8093,247.3241,0,U,48233,999,24795,-.53498E-3,-.186E-5,0
ONEWEB-0199,2021-031AA,2026-06-13T21:53:39.913728,13.14502895,.0001854,87.8969,290.3493,94.9642,265.1700,0,U,48234,999,24783,-.65917E-3,-.232E-5,0
ONEWEB-0203,2021-031AB,2026-06-14T01:19:11.307936,13.14502697,.0001741,87.8968,290.3240,101.7800,258.3525,0,U,48235,999,24786,-.3316E-3,-.11E-5,0
ONEWEB-0197,2021-031AC,2026-06-14T02:32:03.641280,13.14504030,.0002178,87.8957,290.3006,98.0125,262.1252,0,U,48236,999,24778,.64616E-3,.252E-5,0
ONEWEB-0194,2021-031AD,2026-06-14T02:02:34.444032,13.14502655,.0001716,87.8963,290.3265,97.3759,262.7566,0,U,48237,999,24795,-.22196E-3,-.7E-6,0
ONEWEB-0193,2021-031AE,2026-06-14T02:25:24.486240,13.14502536,.0001563,87.8959,290.3139,92.1357,267.9952,0,U,48238,999,24790,.34878E-3,.142E-5,0
ONEWEB-0191,2021-031AF,2026-06-14T02:41:24.042912,13.14502348,.000206,87.8969,290.3100,96.2956,263.8409,0,U,48239,999,24776,.42247E-3,.169E-5,0
ONEWEB-0195,2021-031AG,2026-06-14T02:08:16.220832,13.14501767,.0001989,87.8966,290.3155,112.2978,247.8363,0,U,48240,999,24774,.10455E-3,.52E-6,0
ONEWEB-0201,2021-031AH,2026-06-14T01:51:20.232000,13.14503983,.0002234,87.8958,290.3340,99.0911,261.0472,0,U,48241,999,24797,-.61935E-3,-.217E-5,0
ONEWEB-0207,2021-031AJ,2026-06-14T01:22:36.501024,13.14502769,.0002189,87.8968,290.3224,99.5221,260.6156,0,U,48242,999,24788,-.27547E-3,-.89E-6,0
ONEWEB-0208,2021-031AK,2026-06-13T21:17:08.147904,13.14503185,.0001873,87.8964,290.3630,111.1896,248.9434,0,U,48243,999,24787,.24684E-3,.104E-5,0
ONEWEB-0200,2021-031AL,2026-06-14T03:43:02.476992,13.14502569,.0001981,87.8970,290.2964,103.1976,256.9375,0,U,48244,999,24783,-.33846E-3,-.113E-5,0
ONEWEB-0217,2021-031AM,2026-06-13T20:47:26.982528,13.14502174,.00019561,87.8966,290.3583,111.2313,248.9026,0,U,48245,999,24774,.19767522E-3,.86E-6,0
ONEWEB-0211,2021-045A,2026-06-13T23:57:16.209792,13.16196342,.0001809,87.9005,259.7176,121.5880,238.5428,0,U,48767,999,24402,-.15693E-3,-.47E-6,0
ONEWEB-0223,2021-045B,2026-06-13T23:58:22.144224,13.15545707,.000165,87.9007,259.8250,110.0063,250.1245,0,U,48768,999,24398,.12869E-2,.497E-5,0
