ONEWEB-0196             
1 48218U 21031J   26165.09622439  .00000189  00000+0  47578-3 0  9996
2 48218  87.8960 290.3230 0001963 105.3019 254.8328 13.14502662247825
ONEWEB-0183             
1 48219U 21031K   26165.07084829 -.00000206  00000+0 -58955-3 0  9993
2 48219  87.8959 290.3262 0002091  97.3640 262.7728 13.14503140247916
ONEWEB-0185             
1 48220U 21031L   26165.09700905  .00000123  00000+0  29612-3 0  9991
2 48220  87.8968 290.3141 0002327 102.4081 257.7309 13.14502023247843
ONEWEB-0187             
1 48221U 21031M   26165.07705606 -.00000159  00000+0 -46243-3 0  9993
2 48221  87.8956 290.3340 0002122 105.1932 254.9432 13.14502836247859
ONEWEB-0192             
1 48222U 21031N   26164.89481421  .00000006  00000+0 -19022-4 0  9995
2 48222  87.8959 290.3603 0001846 102.7905 257.3431 13.14501502247743
ONEWEB-0219             
1 48223U 21031P   26165.10254668  .00000176  00000+0  44139-3 0  9995
2 48223  87.8959 290.3111 0002169 104.3620 255.7751 13.14504475247973
ONEWEB-0202             
1 48224U 21031Q   26165.08353920 -.00000108  00000+0 -32643-3 0  9998
2 48224  87.8965 290.3275 0001766 121.5909 238.5394 13.14502639247955
ONEWEB-0204             
1 48225U 21031R   26164.88928078  .00000083  00000+0  19049-3 0  9993
2 48225  87.8964 290.3604 0002165  95.3668 264.7709 13.14502530247822
ONEWEB-0205             
1 48226U 21031S   26165.09303274  .00000032  00000+0  52067-4 0  9995
2 48226  87.8970 290.3131 0002102 106.9440 253.1921 13.14505954247868
ONEWEB-0206             
1 48227U 21031T   26165.06608757 -.00000200  00000+0 -57263-3 0  9998
2 48227  87.8965 290.3200 0001817  95.8991 264.2346 13.14503717247813
ONEWEB-0182             
1 48228U 21031U   26165.06133235 -.00000192  00000+0 -55159-3 0  9995
2 48228  87.8961 290.3286 0002092  95.8001 264.3367 13.14502498248025
ONEWEB-0186             
1 48229U 21031V   26165.07243066 -.00000212  00000+0 -60758-3 0  9995
2 48229  87.8971 290.3168 0002015 102.8625 257.2729 13.14502671247971
ONEWEB-0181             
1 48230U 21031W   26165.05023493 -.00000060  00000+0 -19651-3 0  9992
2 48230  87.8952 290.3512 0001959 106.5091 253.6254 13.14503251247821
ONEWEB-0188             
1 48231U 21031X   26165.08828980 -.00000018  00000+0 -83173-4 0  9994
2 48231  87.8952 290.3428 0001966 101.2222 258.9129 13.14504040247730
ONEWEB-0220             
1 48232U 21031Y   26165.12792431 -.00000017  00000+0 -79413-4 0  9992
2 48232  87.8971 290.3074 0002197 104.7115 255.4258 13.14501700248001
ONEWEB-0165             
1 48233U 21031Z   26165.08035736 -.00000186  00000+0 -53498-3 0  9997
2 48233  87.8962 290.3300 0001928 112.8093 247.3241 13.14500716247951
ONEWEB-0199             
1 48234U 21031AA  26164.91226752 -.00000232  00000+0 -65917-3 0  9990
2 48234  87.8969 290.3493 0001854  94.9642 265.1700 13.14502895247835
ONEWEB-0203             
1 48235U 21031AB  26165.05499199 -.00000110  00000+0 -33160-3 0  9994
2 48235  87.8968 290.3240 0001741 101.7800 258.3525 13.14502697247865
ONEWEB-0197             
1 48236U 21031AC  26165.10559770  .00000252  00000+0  64616-3 0  9998
2 48236  87.8957 290.3006 0002178  98.0125 262.1252 13.14504030247781
ONEWEB-0194             
1 48237U 21031AD  26165.08512088 -.00000070  00000+0 -22196-3 0  9994
2 48237  87.8963 290.3265 0001716  97.3759 262.7566 13.14502655247952
ONEWEB-0193             
1 48238U 21031AE  26165.10097785  .00000142  00000+0  34878-3 0  9998
2 48238  87.8959 290.3139 0001563  92.1357 267.9952 13.14502536247904
ONEWEB-0191             
1 48239U 21031AF  26165.11208383  .00000169  00000+0  42247-3 0  9996
2 48239  87.8969 290.3100 0002060  96.2956 263.8409 13.14502348247764
ONEWEB-0195             
1 48240U 21031AG  26165.08907663  .00000052  00000+0  10455-3 0  9998
2 48240  87.8966 290.3155 0001989 112.2978 247.8363 13.14501767247748
ONEWEB-0201             
1 48241U 21031AH  26165.07731750 -.00000217  00000+0 -61935-3 0  9994
2 48241  87.8958 290.3340 0002234  99.0911 261.0472 13.14503983247975
ONEWEB-0207             
1 48242U 21031AJ  26165.05736691 -.00000089  00000+0 -27547-3 0  9990
2 48242  87.8968 290.3224 0002189  99.5221 260.6156 13.14502769247881
ONEWEB-0208             
1 48243U 21031AK  26164.88689986  .00000104  00000+0  24684-3 0  9990
2 48243  87.8964 290.3630 0001873 111.1896 248.9434 13.14503185247877
ONEWEB-0200             
1 48244U 21031AL  26165.15488978 -.00000113  00000+0 -33846-3 0  9992
2 48244  87.8970 290.2964 0001981 103.1976 256.9375 13.14502569247838
ONEWEB-0217             
1 48245U 21031AM  26164.86628452  .00000086  00000+0  19768-3 0  9997
2 48245  87.8966 290.3583 0001956 111.2313 248.9026 13.14502174247745
ONEWEB-0211             
1 48767U 21045A   26164.99810428 -.00000047  00000+0 -15693-3 0  9993
2 48767  87.9005 259.7176 0001809 121.5880 238.5428 13.16196342244023
ONEWEB-0223             
1 48768U 21045B   26164.99886741  .00000497  00000+0  12869-2 0  9993
2 48768  87.9007 259.8250 0001650 110.0063 250.1245 13.15545707243983
